$$SOE
2460714.500000000, A.D. 2025-Feb-08 00:00:00.0000, 7.062263316122924E+09, -2.534913930621323E+09, -1.403037767806780E+08,
2460721.500000000, A.D. 2025-Feb-15 00:00:00.0000, 7.063346700653742E+09, -2.532708787748245E+09, -1.403486994679501E+08,
2460728.500000000, A.D. 2025-Feb-22 00:00:00.0000, 7.064429263829439E+09, -2.530503443215197E+09, -1.403936053686666E+08,
2460735.500000000, A.D. 2025-Mar-01 00:00:00.0000, 7.065511007897455E+09, -2.528297896916122E+09, -1.404384946495097E+08,
2460742.500000000, A.D. 2025-Mar-08 00:00:00.0000, 7.066591936187276E+09, -2.526092148860397E+09, -1.404833676281271E+08,
2460749.500000000, A.D. 2025-Mar-15 00:00:00.0000, 7.067672053088187E+09, -2.523886197337331E+09, -1.405282246176040E+08,
2460756.500000000, A.D. 2025-Mar-22 00:00:00.0000, 7.068751361818888E+09, -2.521680038493599E+09, -1.405730656825444E+08,
2460763.500000000, A.D. 2025-Mar-29 00:00:00.0000, 7.069829863566418E+09, -2.519473668165380E+09, -1.406178907039397E+08,
2460770.500000000, A.D. 2025-Apr-05 00:00:00.0000, 7.070907558319669E+09, -2.517267082826768E+09, -1.406626995264525E+08,
2460777.500000000, A.D. 2025-Apr-12 00:00:00.0000, 7.071984445471496E+09, -2.515060279550266E+09, -1.407074920032723E+08,
2460784.500000000, A.D. 2025-Apr-19 00:00:00.0000, 7.073060524002278E+09, -2.512853255860418E+09, -1.407522679936826E+08,
2460791.500000000, A.D. 2025-Apr-26 00:00:00.0000, 7.074135792516557E+09, -2.510646009683299E+09, -1.407970273551133E+08,
2460798.500000000, A.D. 2025-May-03 00:00:00.0000, 7.075210249246428E+09, -2.508438539372272E+09, -1.408417699387597E+08,
2460805.500000000, A.D. 2025-May-10 00:00:00.0000, 7.076283892050296E+09, -2.506230843801028E+09, -1.408864955908620E+08,
2460812.500000000, A.D. 2025-May-17 00:00:00.0000, 7.077356718443705E+09, -2.504022922564596E+09, -1.409312041665057E+08,
2460819.500000000, A.D. 2025-May-24 00:00:00.0000, 7.078428725836165E+09, -2.501814776342508E+09, -1.409758955764306E+08,
2460826.500000000, A.D. 2025-May-31 00:00:00.0000, 7.079499912391783E+09, -2.499606407112911E+09, -1.410205698798125E+08,
2460833.500000000, A.D. 2025-Jun-07 00:00:00.0000, 7.080570278112698E+09, -2.497397817012574E+09, -1.410652272877979E+08,
2460840.500000000, A.D. 2025-Jun-14 00:00:00.0000, 7.081639823780819E+09, -2.495189006509483E+09, -1.411098679154154E+08,
2460847.500000000, A.D. 2025-Jun-21 00:00:00.0000, 7.082708548974611E+09, -2.492979975159169E+09, -1.411544916607761E+08,
2460854.500000000, A.D. 2025-Jun-28 00:00:00.0000, 7.083776452289131E+09, -2.490770723179928E+09, -1.411990983542448E+08,
2460861.500000000, A.D. 2025-Jul-05 00:00:00.0000, 7.084843532242561E+09, -2.488561251690304E+09, -1.412436878621875E+08,
2460868.500000000, A.D. 2025-Jul-12 00:00:00.0000, 7.085909787678318E+09, -2.486351562414030E+09, -1.412882601018102E+08,
2460875.500000000, A.D. 2025-Jul-19 00:00:00.0000, 7.086975217852214E+09, -2.484141657427321E+09, -1.413328150314093E+08,
2460882.500000000, A.D. 2025-Jul-26 00:00:00.0000, 7.088039822414660E+09, -2.481931539004973E+09, -1.413773526398224E+08,
2460889.500000000, A.D. 2025-Aug-02 00:00:00.0000, 7.089103601353285E+09, -2.479721209543437E+09, -1.414218729391977E+08,
2460896.500000000, A.D. 2025-Aug-09 00:00:00.0000, 7.090166554919394E+09, -2.477510671575276E+09, -1.414663759642851E+08,
2460903.500000000, A.D. 2025-Aug-16 00:00:00.0000, 7.091228683615167E+09, -2.475299927937968E+09, -1.415108617903013E+08,
2460910.500000000, A.D. 2025-Aug-23 00:00:00.0000, 7.092289988534296E+09, -2.473088982080293E+09, -1.415553305946432E+08,
2460917.500000000, A.D. 2025-Aug-30 00:00:00.0000, 7.093350472384941E+09, -2.470877837792007E+09, -1.415997827340479E+08,
2460924.500000000, A.D. 2025-Sep-06 00:00:00.0000, 7.094410139776894E+09, -2.468666497356381E+09, -1.416442186251186E+08,
2460931.500000000, A.D. 2025-Sep-13 00:00:00.0000, 7.095468995102191E+09, -2.466454960608272E+09, -1.416886384776388E+08,
2460938.500000000, A.D. 2025-Sep-20 00:00:00.0000, 7.096527041282434E+09, -2.464243226542039E+09, -1.417330423150266E+08,
2460945.500000000, A.D. 2025-Sep-27 00:00:00.0000, 7.097584280441316E+09, -2.462031294357557E+09, -1.417774301245197E+08,
2460952.500000000, A.D. 2025-Oct-04 00:00:00.0000, 7.098640714485703E+09, -2.459819163404922E+09, -1.418218019078741E+08,
2460959.500000000, A.D. 2025-Oct-11 00:00:00.0000, 7.099696345221603E+09, -2.457606832970664E+09, -1.418661576752715E+08,
2460966.500000000, A.D. 2025-Oct-18 00:00:00.0000, 7.100751174288688E+09, -2.455394302179636E+09, -1.419104974308285E+08,
2460973.500000000, A.D. 2025-Oct-25 00:00:00.0000, 7.101805203052895E+09, -2.453181570001220E+09, -1.419548211616462E+08,
2460980.500000000, A.D. 2025-Nov-01 00:00:00.0000, 7.102858432496516E+09, -2.450968635343977E+09, -1.419991288328544E+08,
2460987.500000000, A.D. 2025-Nov-08 00:00:00.0000, 7.103910863140295E+09, -2.448755497269690E+09, -1.420434203945352E+08,
2460994.500000000, A.D. 2025-Nov-15 00:00:00.0000, 7.104962495145314E+09, -2.446542155384899E+09, -1.420876958190744E+08,
2461001.500000000, A.D. 2025-Nov-22 00:00:00.0000, 7.106013328997352E+09, -2.444328610189362E+09, -1.421319551881033E+08,
2461008.500000000, A.D. 2025-Nov-29 00:00:00.0000, 7.107063366620378E+09, -2.442114862246000E+09, -1.421761987224376E+08,
2461015.500000000, A.D. 2025-Dec-06 00:00:00.0000, 7.108112610641792E+09, -2.439900910307967E+09, -1.422204265574380E+08,
2461022.500000000, A.D. 2025-Dec-13 00:00:00.0000, 7.109161062242939E+09, -2.437686751772791E+09, -1.422646385791703E+08,
2461029.500000000, A.D. 2025-Dec-20 00:00:00.0000, 7.110208721088120E+09, -2.435472384440095E+09, -1.423088345582552E+08,
2461036.500000000, A.D. 2025-Dec-27 00:00:00.0000, 7.111255586258251E+09, -2.433257806981149E+09, -1.423530142712255E+08,
2461043.500000000, A.D. 2026-Jan-03 00:00:00.0000, 7.112301656729948E+09, -2.431043018735277E+09, -1.423971775258729E+08,
2461050.500000000, A.D. 2026-Jan-10 00:00:00.0000, 7.113346931509800E+09, -2.428828019511322E+09, -1.424413241561042E+08,
2461057.500000000, A.D. 2026-Jan-17 00:00:00.0000, 7.114391409656400E+09, -2.426612809484934E+09, -1.424854540150520E+08,
2461064.500000000, A.D. 2026-Jan-24 00:00:00.0000, 7.115435090268068E+09, -2.424397389168126E+09, -1.425295669716408E+08,
2461071.500000000, A.D. 2026-Jan-31 00:00:00.0000, 7.116477972459723E+09, -2.422181759457566E+09, -1.425736629132669E+08,
2461078.500000000, A.D. 2026-Feb-07 00:00:00.0000, 7.117520055390423E+09, -2.419965921818049E+09, -1.426177417647974E+08,
2461085.500000000, A.D. 2026-Feb-14 00:00:00.0000, 7.118561338594622E+09, -2.417749878615534E+09, -1.426618035482551E+08,
2461092.500000000, A.D. 2026-Feb-21 00:00:00.0000, 7.119601823004724E+09, -2.415533633021934E+09, -1.427058484714558E+08,
2461099.500000000, A.D. 2026-Feb-28 00:00:00.0000, 7.120641511580069E+09, -2.413317187337584E+09, -1.427498768517627E+08,
2461106.500000000, A.D. 2026-Mar-07 00:00:00.0000, 7.121680407483826E+09, -2.411100541680978E+09, -1.427938888454063E+08,
2461113.500000000, A.D. 2026-Mar-14 00:00:00.0000, 7.122718512583489E+09, -2.408883695378376E+09, -1.428378844275198E+08,
2461120.500000000, A.D. 2026-Mar-21 00:00:00.0000, 7.123755828057856E+09, -2.406666648155225E+09, -1.428818635494776E+08,
2461127.500000000, A.D. 2026-Mar-28 00:00:00.0000, 7.124792355101108E+09, -2.404449400100696E+09, -1.429258262050464E+08,
2461134.500000000, A.D. 2026-Apr-04 00:00:00.0000, 7.125828095120256E+09, -2.402231951370995E+09, -1.429697724287403E+08,
2461141.500000000, A.D. 2026-Apr-11 00:00:00.0000, 7.126863049699887E+09, -2.400014301991402E+09, -1.430137022807319E+08,
2461148.500000000, A.D. 2026-Apr-18 00:00:00.0000, 7.127897220493598E+09, -2.397796451763756E+09, -1.430576158332785E+08,
2461155.500000000, A.D. 2026-Apr-25 00:00:00.0000, 7.128930609088210E+09, -2.395578400264685E+09, -1.431015131614584E+08,
2461162.500000000, A.D. 2026-May-02 00:00:00.0000, 7.129963216871761E+09, -2.393360146964219E+09, -1.431453943432670E+08,
2461169.500000000, A.D. 2026-May-09 00:00:00.0000, 7.130995045030272E+09, -2.391141691530994E+09, -1.431892594857430E+08,
2461176.500000000, A.D. 2026-May-16 00:00:00.0000, 7.132026095051612E+09, -2.388923034185688E+09, -1.432331088003602E+08,
2461183.500000000, A.D. 2026-May-23 00:00:00.0000, 7.133056369788583E+09, -2.386704175080283E+09, -1.432769426488127E+08,
2461190.500000000, A.D. 2026-May-30 00:00:00.0000, 7.134085873002970E+09, -2.384485112383559E+09, -1.433207613424436E+08,
2461197.500000000, A.D. 2026-Jun-06 00:00:00.0000, 7.135114607073373E+09, -2.382265842346354E+09, -1.433645649338051E+08,
2461204.500000000, A.D. 2026-Jun-13 00:00:00.0000, 7.136142572532820E+09, -2.380046361147640E+09, -1.434083533204614E+08,
2461211.500000000, A.D. 2026-Jun-20 00:00:00.0000, 7.137169768935147E+09, -2.377826665595246E+09, -1.434521263761530E+08,
2461218.500000000, A.D. 2026-Jun-27 00:00:00.0000, 7.138196195351812E+09, -2.375606753021082E+09, -1.434958839815706E+08,
2461225.500000000, A.D. 2026-Jul-04 00:00:00.0000, 7.139221850498981E+09, -2.373386621145714E+09, -1.435396260183337E+08,
2461232.500000000, A.D. 2026-Jul-11 00:00:00.0000, 7.140246732748841E+09, -2.371166268044131E+09, -1.435833523605165E+08,
2461239.500000000, A.D. 2026-Jul-18 00:00:00.0000, 7.141270840117837E+09, -2.368945692186942E+09, -1.436270628703892E+08,
2461246.500000000, A.D. 2026-Jul-25 00:00:00.0000, 7.142294170256242E+09, -2.366724892554178E+09, -1.436707574006224E+08,
2461253.500000000, A.D. 2026-Aug-01 00:00:00.0000, 7.143316720487148E+09, -2.364503868869793E+09, -1.437144358114939E+08,
2461260.500000000, A.D. 2026-Aug-08 00:00:00.0000, 7.144338488109713E+09, -2.362282621992611E+09, -1.437580980258816E+08,
2461267.500000000, A.D. 2026-Aug-15 00:00:00.0000, 7.145359471381606E+09, -2.360061154013257E+09, -1.438017441233994E+08,
2461274.500000000, A.D. 2026-Aug-22 00:00:00.0000, 7.146379670419549E+09, -2.357839466835597E+09, -1.438453743041255E+08,
$$EOE